{
  "type": "FeatureCollection",
  "features": [
    {
      "type": "Feature",
      "properties": {
        "norad_id": 36061,
        "name": "COSMOS 2251 DEB",
        "group": "cosmos-2251-debris",
        "lat": -59.56850658879245,
        "lon": -34.396909538112894,
        "alt_km": 807.8252255763709,
        "timestamp": "2025-12-15T10:55:21.542031+00:00",
        "meta_object_name": "COSMOS 2251 DEB",
        "meta_object_id": "1993-036AXY",
        "meta_epoch": "2025-12-14T18:28:25.943808",
        "meta_mean_motion": 14.33711933,
        "meta_eccentricity": 0.003679,
        "meta_inclination": 74.0242,
        "meta_ra_of_asc_node": 356.0444,
        "meta_arg_of_pericenter": 83.3276,
        "meta_mean_anomaly": 277.2061,
        "meta_ephemeris_type": 0,
        "meta_classification_type": "U",
        "meta_norad_cat_id": 36061,
        "meta_element_set_no": 999,
        "meta_rev_at_epoch": 65133,
        "meta_bstar": 0.0003323683,
        "meta_mean_motion_dot": 9.04e-06,
        "meta_mean_motion_ddot": 0,
        "tle_line1": "1 36061U 93036AXY 25348.76974472  .00000904  00000+0  33237-3 0  9998",
        "tle_line2": "2 36061  74.0242 356.0444 0036790  83.3276 277.2061 14.33711933651335"
      },
      "geometry": {
        "type": "Point",
        "coordinates": [
          -34.396909538112894,
          -59.56850658879245
        ]
      }
    },
    {
      "type": "Feature",
      "properties": {
        "norad_id": 36073,
        "name": "COSMOS 2251 DEB",
        "group": "cosmos-2251-debris",
        "lat": 42.95700475393758,
        "lon": -26.956291706211633,
        "alt_km": 755.240925975063,
        "timestamp": "2025-12-15T10:55:21.542042+00:00",
        "meta_object_name": "COSMOS 2251 DEB",
        "meta_object_id": "1993-036AYL",
        "meta_epoch": "2025-12-14T06:16:10.983072",
        "meta_mean_motion": 14.34955439,
        "meta_eccentricity": 0.00239275,
        "meta_inclination": 74.0321,
        "meta_ra_of_asc_node": 319.7693,
        "meta_arg_of_pericenter": 27.306,
        "meta_mean_anomaly": 332.9344,
        "meta_ephemeris_type": 0,
        "meta_classification_type": "U",
        "meta_norad_cat_id": 36073,
        "meta_element_set_no": 999,
        "meta_rev_at_epoch": 70229,
        "meta_bstar": 0.0003171948,
        "meta_mean_motion_dot": 8.79e-06,
        "meta_mean_motion_ddot": 0,
        "tle_line1": "1 36073U 93036AYL 25348.26123823  .00000879  00000+0  31719-3 0  9996",
        "tle_line2": "2 36073  74.0321 319.7693 0023927  27.3060 332.9344 14.34955439702292"
      },
      "geometry": {
        "type": "Point",
        "coordinates": [
          -26.956291706211633,
          42.95700475393758
        ]
      }
    },
    {
      "type": "Feature",
      "properties": {
        "norad_id": 36074,
        "name": "COSMOS 2251 DEB",
        "group": "cosmos-2251-debris",
        "lat": -73.88782513611278,
        "lon": -120.96335006378996,
        "alt_km": 780.4230580703534,
        "timestamp": "2025-12-15T10:55:21.542051+00:00",
        "meta_object_name": "COSMOS 2251 DEB",
        "meta_object_id": "1993-036AYM",
        "meta_epoch": "2025-12-04T07:35:54.379968",
        "meta_mean_motion": 14.43651509,
        "meta_eccentricity": 0.0041318,
        "meta_inclination": 73.9929,
        "meta_ra_of_asc_node": 356.1864,
        "meta_arg_of_pericenter": 90.6412,
        "meta_mean_anomaly": 269.9479,
        "meta_ephemeris_type": 0,
        "meta_classification_type": "U",
        "meta_norad_cat_id": 36074,
        "meta_element_set_no": 999,
        "meta_rev_at_epoch": 85788,
        "meta_bstar": 0.0017767,
        "meta_mean_motion_dot": 6.071e-05,
        "meta_mean_motion_ddot": 0,
        "tle_line1": "1 36074U 93036AYM 25338.31660162  .00006071  00000+0  17767-2 0  9990",
        "tle_line2": "2 36074  73.9929 356.1864 0041318  90.6412 269.9479 14.43651509857883"
      },
      "geometry": {
        "type": "Point",
        "coordinates": [
          -120.96335006378996,
          -73.88782513611278
        ]
      }
    },
    {
      "type": "Feature",
      "properties": {
        "norad_id": 36366,
        "name": "COSMOS 2251 DEB",
        "group": "cosmos-2251-debris",
        "lat": 70.16492982516688,
        "lon": 35.73342915637835,
        "alt_km": 836.0004491412337,
        "timestamp": "2025-12-15T10:55:21.542062+00:00",
        "meta_object_name": "COSMOS 2251 DEB",
        "meta_object_id": "1993-036AYT",
        "meta_epoch": "2025-12-14T10:59:45.440448",
        "meta_mean_motion": 14.33413986,
        "meta_eccentricity": 0.00904998,
        "meta_inclination": 74.0651,
        "meta_ra_of_asc_node": 269.929,
        "meta_arg_of_pericenter": 297.9543,
        "meta_mean_anomaly": 61.2469,
        "meta_ephemeris_type": 0,
        "meta_classification_type": "U",
        "meta_norad_cat_id": 36366,
        "meta_element_set_no": 999,
        "meta_rev_at_epoch": 86313,
        "meta_bstar": 0.0019589363,
        "meta_mean_motion_dot": 5.636e-05,
        "meta_mean_motion_ddot": 0,
        "tle_line1": "1 36366U 93036AYT 25348.45816482  .00005636  00000+0  19589-2 0  9998",
        "tle_line2": "2 36366  74.0651 269.9290 0090499 297.9543  61.2469 14.33413986863137"
      },
      "geometry": {
        "type": "Point",
        "coordinates": [
          35.73342915637835,
          70.16492982516688
        ]
      }
    },
    {
      "type": "Feature",
      "properties": {
        "norad_id": 36367,
        "name": "COSMOS 2251 DEB",
        "group": "cosmos-2251-debris",
        "lat": 39.525479167183654,
        "lon": -119.55500939677474,
        "alt_km": 974.6778311496128,
        "timestamp": "2025-12-15T10:55:21.542072+00:00",
        "meta_object_name": "COSMOS 2251 DEB",
        "meta_object_id": "1993-036AYU",
        "meta_epoch": "2025-12-11T01:04:58.660896",
        "meta_mean_motion": 13.86314595,
        "meta_eccentricity": 0.02625211,
        "meta_inclination": 74.1007,
        "meta_ra_of_asc_node": 234.2792,
        "meta_arg_of_pericenter": 307.5422,
        "meta_mean_anomaly": 50.2108,
        "meta_ephemeris_type": 0,
        "meta_classification_type": "U",
        "meta_norad_cat_id": 36367,
        "meta_element_set_no": 999,
        "meta_rev_at_epoch": 57506,
        "meta_bstar": 0.0022824489,
        "meta_mean_motion_dot": 3.437e-05,
        "meta_mean_motion_ddot": 0,
        "tle_line1": "1 36367U 93036AYU 25345.04512339  .00003437  00000+0  22824-2 0  9998",
        "tle_line2": "2 36367  74.1007 234.2792 0262521 307.5422  50.2108 13.86314595575060"
      },
      "geometry": {
        "type": "Point",
        "coordinates": [
          -119.55500939677474,
          39.525479167183654
        ]
      }
    },
    {
      "type": "Feature",
      "properties": {
        "norad_id": 36369,
        "name": "COSMOS 2251 DEB",
        "group": "cosmos-2251-debris",
        "lat": -27.49597179958127,
        "lon": 56.863616198339805,
        "alt_km": 662.6040484990963,
        "timestamp": "2025-12-15T10:55:21.542082+00:00",
        "meta_object_name": "COSMOS 2251 DEB",
        "meta_object_id": "1993-036AYW",
        "meta_epoch": "2025-12-13T11:48:09.562176",
        "meta_mean_motion": 14.73593845,
        "meta_eccentricity": 0.00111215,
        "meta_inclination": 74.0315,
        "meta_ra_of_asc_node": 69.2624,
        "meta_arg_of_pericenter": 147.3699,
        "meta_mean_anomaly": 212.8163,
        "meta_ephemeris_type": 0,
        "meta_classification_type": "U",
        "meta_norad_cat_id": 36369,
        "meta_element_set_no": 999,
        "meta_rev_at_epoch": 85933,
        "meta_bstar": 0.0023523772,
        "meta_mean_motion_dot": 0.00015337,
        "meta_mean_motion_ddot": 0,
        "tle_line1": "1 36369U 93036AYW 25347.49177734  .00015337  00000+0  23524-2 0  9997",
        "tle_line2": "2 36369  74.0315  69.2624 0011121 147.3699 212.8163 14.73593845859333"
      },
      "geometry": {
        "type": "Point",
        "coordinates": [
          56.863616198339805,
          -27.49597179958127
        ]
      }
    },
    {
      "type": "Feature",
      "properties": {
        "norad_id": 36371,
        "name": "COSMOS 2251 DEB",
        "group": "cosmos-2251-debris",
        "lat": -31.12428698467438,
        "lon": -13.774143936554363,
        "alt_km": 658.2004916346887,
        "timestamp": "2025-12-15T10:55:21.542092+00:00",
        "meta_object_name": "COSMOS 2251 DEB",
        "meta_object_id": "1993-036AYY",
        "meta_epoch": "2025-12-14T17:38:02.083776",
        "meta_mean_motion": 14.70655983,
        "meta_eccentricity": 0.00095601,
        "meta_inclination": 74.0125,
        "meta_ra_of_asc_node": 157.6564,
        "meta_arg_of_pericenter": 196.4199,
        "meta_mean_anomaly": 163.6664,
        "meta_ephemeris_type": 0,
        "meta_classification_type": "U",
        "meta_norad_cat_id": 36371,
        "meta_element_set_no": 999,
        "meta_rev_at_epoch": 71474,
        "meta_bstar": 0.001555296,
        "meta_mean_motion_dot": 9.456e-05,
        "meta_mean_motion_ddot": 0,
        "tle_line1": "1 36371U 93036AYY 25348.73474634  .00009456  00000+0  15553-2 0  9995",
        "tle_line2": "2 36371  74.0125 157.6564 0009560 196.4199 163.6664 14.70655983714747"
      },
      "geometry": {
        "type": "Point",
        "coordinates": [
          -13.774143936554363,
          -31.12428698467438
        ]
      }
    }
  ]
}